STARLINK-30565          
1 58034U 23156G   26068.43852897  .00000501  00000+0  29032-4 0  9990
2 58034  53.1608  79.6446 0001253  83.6454 276.4690 15.30193119136278
HYPERFIELD-1A           
1 60562U 24149CY  26068.76488211  .00008569  00000+0  30052-3 0  9998
2 60562  97.3842 149.5066 0003865 313.7844  46.3076 15.29681349 86836
