[{"OBJECT_NAME":"STARLINK-30565","OBJECT_ID":"2023-156G","EPOCH":"2026-03-09T10:31:28.903008","MEAN_MOTION":15.30193119,"ECCENTRICITY":0.00012538,"INCLINATION":53.1608,"RA_OF_ASC_NODE":79.6446,"ARG_OF_PERICENTER":83.6454,"MEAN_ANOMALY":276.469,"EPHEMERIS_TYPE":0,"CLASSIFICATION_TYPE":"U","NORAD_CAT_ID":58034,"ELEMENT_SET_NO":999,"REV_AT_EPOCH":13627,"BSTAR":2.9031876e-5,"MEAN_MOTION_DOT":5.01e-6,"MEAN_MOTION_DDOT":0},{"OBJECT_NAME":"HYPERFIELD-1A","OBJECT_ID":"2024-149CY","EPOCH":"2026-03-09T18:21:25.814304","MEAN_MOTION":15.29681349,"ECCENTRICITY":0.00038648,"INCLINATION":97.3842,"RA_OF_ASC_NODE":149.5066,"ARG_OF_PERICENTER":313.7844,"MEAN_ANOMALY":46.3076,"EPHEMERIS_TYPE":0,"CLASSIFICATION_TYPE":"U","NORAD_CAT_ID":60562,"ELEMENT_SET_NO":999,"REV_AT_EPOCH":8683,"BSTAR":0.00030052114,"MEAN_MOTION_DOT":8.569e-5,"MEAN_MOTION_DDOT":0}]
